HIMAWARI-8              
1 40267U 14060A   24025.93167800 -.00000275  00000+0  00000+0 0  9990
2 40267   0.0353 240.1805 0001068  73.4428 287.1302  1.00271392 34000
